NORAD_CAT_ID,OBJECT_NAME,OBJECT_TYPE,EPOCH,MEAN_MOTION,ECCENTRICITY,INCLINATION,RA_OF_ASC_NODE,ARG_OF_PERICENTER,MEAN_ANOMALY,BSTAR,MEAN_MOTION_DOT,MEAN_MOTION_DDOT,TLE_LINE0,TLE_LINE1,TLE_LINE2,SEMIMAJOR_AXIS,PERIOD,APOGEE,PERIGEE,DECAYED
51750.0,STARLINK-3505,PAYLOAD,2022-11-25 21:28:00,15.08851496,0.0003008,53.2165,295.219,34.6799,325.4389,0.00020128,2.917e-05,0.0,0 STARLINK-3505,1 51750U 22016AN  22329.89445511  .00002917  00000-0  20128-3 0  9999,2 51750  53.2165 295.2190 0003008  34.6799 325.4389 15.08851496 42578,6917.845,95.437,541.7909999999998,537.629,0.0
51750.0,STARLINK-3505,PAYLOAD,2022-11-26 10:11:05,15.088517,0.000301,53.2168,292.8397,35.4253,324.6938,0.00011775,1.587e-05,0.0,0 STARLINK-3505,1 51750U 22016AN  22330.42437308  .00001587  00000-0  11775-3 0  9995,2 51750  53.2168 292.8397 0003010  35.4253 324.6938 15.08851700 42658,6917.845,95.437,541.7919999999998,537.627,0.0
51750.0,STARLINK-3505,PAYLOAD,2022-11-26 14:57:14,15.0885593,0.0002969,53.2168,291.9477,35.525,324.594,0.0001692,2.407e-05,0.0,0 STARLINK-3505,1 51750U 22016AN  22330.62308939  .00002407  00000-0  16920-3 0  9993,2 51750  53.2168 291.9477 0002969  35.5250 324.5940 15.08855930 43806,6917.831999999999,95.437,541.751,537.643,0.0
51750.0,STARLINK-3505,PAYLOAD,2022-11-27 02:04:56,15.08848793,0.0002983,53.2169,289.8661,34.0038,326.1145,0.00011872,1.602e-05,0.0,0 STARLINK-3505,1 51750U 22016AN  22331.08676971  .00001602  00000-0  11872-3 0  9995,2 51750  53.2169 289.8661 0002983  34.0038 326.1145 15.08848793 43873,6917.854,95.437,541.7819999999998,537.655,0.0
51750.0,STARLINK-3505,PAYLOAD,2022-11-27 10:01:52,15.08846503,0.0003029,53.217,288.3801,33.5894,326.529,7.664899999999999e-05,9.32e-06,0.0,0 STARLINK-3505,1 51750U 22016AN  22331.41796896  .00000932  00000-0  76649-4 0  9990,2 51750  53.2170 288.3801 0003029  33.5894 326.5290 15.08846503 42805,6917.861,95.437,541.821,537.63,0.0
51750.0,STARLINK-3505,PAYLOAD,2022-11-28 05:06:30,15.08845802,0.0003018,53.2175,284.8105,37.1636,322.9565,6.2353e-05,7.04e-06,0.0,0 STARLINK-3505,1 51750U 22016AN  22332.21285018  .00000704  00000-0  62353-4 0  9992,2 51750  53.2175 284.8105 0003018  37.1636 322.9565 15.08845802 44044,6917.863,95.437,541.815,537.64,0.0
51750.0,STARLINK-3505,PAYLOAD,2022-11-28 08:17:16,15.08848608,0.0002988,53.2176,284.2163,36.4902,323.6293,8.9677e-05,1.139e-05,0.0,0 STARLINK-3505,1 51750U 22016AN  22332.34532733  .00001139  00000-0  89677-4 0  9996,2 51750  53.2176 284.2163 0002988  36.4902 323.6293 15.08848608 42946,6917.854,95.437,541.786,537.6519999999998,0.0
51750.0,STARLINK-3505,PAYLOAD,2022-11-29 03:21:54,15.08833727,0.000306,53.2175,280.6482,36.6433,323.4768,-8.4198e-05,-1.628e-05,0.0,0 STARLINK-3505,1 51750U 22016AN  22333.14021982 -.00001628  00000-0 -84198-4 0  9992,2 51750  53.2175 280.6482 0003060  36.6433 323.4768 15.08833727 44181,6917.9,95.438,541.881,537.648,0.0
51750.0,STARLINK-3505,PAYLOAD,2022-11-29 06:32:41,15.08830152,0.000298,53.2175,280.0535,36.8755,323.2442,-8.2699e-05,-1.604e-05,0.0,0 STARLINK-3505,1 51750U 22016AN  22333.27270254 -.00001604  00000-0 -82699-4 0  9992,2 51750  53.2175 280.0535 0002980  36.8755 323.2442 15.08830152 43087,6917.91,95.438,541.837,537.714,0.0
51750.0,STARLINK-3505,PAYLOAD,2022-11-30 06:23:28,15.08827398,0.000309,53.2174,275.5931,33.3361,326.7825,8.3317e-06,-1.56e-06,0.0,0 STARLINK-3505,1 51750U 22016AN  22334.26630719 -.00000156  00000-0  83317-5 0  9997,2 51750  53.2174 275.5931 0003090  33.3361 326.7825 15.08827398 44355,6917.919,95.438,541.922,537.646,0.0
51750.0,STARLINK-3505,PAYLOAD,2022-12-01 06:14:16,15.0882737,0.0003026,53.2173,271.1324,32.4236,327.6942,9.4028e-05,1.208e-05,0.0,0 STARLINK-3505,1 51750U 22016AN  22335.25990971  .00001208  00000-0  94028-4 0  9994,2 51750  53.2173 271.1324 0003026  32.4236 327.6942 15.08827370 43384,6917.919,95.438,541.877,537.691,0.0
51750.0,STARLINK-3505,PAYLOAD,2022-12-01 18:57:20,15.08840445,0.0002885,53.2171,268.7535,33.7615,326.356,0.00013787,1.906e-05,0.0,0 STARLINK-3505,1 51750U 22016AN  22335.78982164  .00001906  00000-0  13787-3 0  9994,2 51750  53.2171 268.7535 0002885  33.7615 326.3560 15.08840445 44588,6917.879,95.438,541.74,537.748,0.0
51750.0,STARLINK-3505,PAYLOAD,2022-12-02 12:26:34,15.08842666,0.0002966,53.2171,265.4835,35.0088,325.1099,0.00014184,1.97e-05,0.0,0 STARLINK-3505,1 51750U 22016AN  22336.51846062  .00001970  00000-0  14184-3 0  9995,2 51750  53.2171 265.4835 0002966  35.0088 325.1099 15.08842666 43573,6917.871999999999,95.437,541.789,537.685,0.0
51750.0,STARLINK-3505,PAYLOAD,2022-12-03 04:20:26,15.08836625,0.0003113,53.2175,262.5106,34.359,325.7603,5.1802e-05,5.36e-06,0.0,0 STARLINK-3505,1 51750U 22016AN  22337.18086722  .00000536  00000-0  51802-4 0  9994,2 51750  53.2175 262.5106 0003113  34.3590 325.7603 15.08836625 44791,6917.891,95.438,541.909,537.602,0.0
51750.0,STARLINK-3505,PAYLOAD,2022-12-03 12:17:23,15.08829775,0.0003058999999999,53.2171,261.0233,36.5565,323.5636,-3.1469e-06,-3.39e-06,0.0,0 STARLINK-3505,1 51750U 22016AN  22337.51207379 -.00000339  00000-0 -31469-5 0  9995,2 51750  53.2171 261.0233 0003059  36.5565 323.5636 15.08829775 44843,6917.9119999999975,95.438,541.893,537.66,0.0
51750.0,STARLINK-3505,PAYLOAD,2022-12-03 18:38:55,15.08837649,0.0003132,53.2169,259.8326,37.9279,322.1933,-3.5101e-05,-8.47e-06,0.0,0 STARLINK-3505,1 51750U 22016AN  22337.77703007 -.00000847  00000-0 -35101-4 0  9992,2 51750  53.2169 259.8326 0003132  37.9279 322.1933 15.08837649 44885,6917.888000000001,95.438,541.919,537.586,0.0
51750.0,STARLINK-3505,PAYLOAD,2022-12-04 02:35:50,15.08844223,0.0003131,53.2169,258.3465,32.6183,327.5002,-2.6765e-05,-7.15e-06,0.0,0 STARLINK-3505,1 51750U 22016AN  22338.10822520 -.00000715  00000-0 -26765-4 0  9992,2 51750  53.2169 258.3465 0003131  32.6183 327.5002 15.08844223 44936,6917.8669999999975,95.437,541.898,537.566,0.0
51750.0,STARLINK-3505,PAYLOAD,2022-12-04 12:08:09,15.08842737,0.0003062,53.2172,256.5621,35.9862,324.1336,6.9547e-05,8.18e-06,0.0,0 STARLINK-3505,1 51750U 22016AN  22338.50566266  .00000818  00000-0  69547-4 0  9995,2 51750  53.2172 256.5621 0003062  35.9862 324.1336 15.08842737 43870,6917.871999999999,95.437,541.855,537.619,0.0
51750.0,STARLINK-3505,PAYLOAD,2022-12-05 04:02:00,15.08842712,0.0002972,53.2171,253.5871,38.2603,321.8599,0.00016996,2.418e-05,0.0,0 STARLINK-3505,1 51750U 22016AN  22339.16805940  .00002418  00000-0  16996-3 0  9990,2 51750  53.2171 253.5871 0002972  38.2603 321.8599 15.08842712 45095,6917.871999999999,95.437,541.793,537.681,0.0
51750.0,STARLINK-3505,PAYLOAD,2022-12-05 11:58:56,15.08840934,0.0003072,53.2169,252.1013,36.4418,323.6783,0.00014651,2.044e-05,0.0,0 STARLINK-3505,1 51750U 22016AN  22339.49926146  .00002044  00000-0  14651-3 0  9999,2 51750  53.2169 252.1013 0003072  36.4418 323.6783 15.08840934 44022,6917.878000000002,95.437,541.868,537.617,0.0
51750.0,STARLINK-3505,PAYLOAD,2022-12-06 00:42:00,15.08847786,0.0002989,53.2166,249.7216,35.3236,324.7954,0.00016701,2.371e-05,0.0,0 STARLINK-3505,1 51750U 22016AN  22340.02917385  .00002371  00000-0  16701-3 0  9996,2 51750  53.2166 249.7216 0002989  35.3236 324.7954 15.08847786 44101,6917.857,95.437,541.789,537.654,0.0
51750.0,STARLINK-3505,PAYLOAD,2022-12-07 03:43:35,15.0883882,0.0002993,53.2165,244.6671,34.0229,326.0955,-0.00025172,-4.293e-05,0.0,0 STARLINK-3505,1 51750U 22016AN  22341.15527412 -.00004293  00000-0 -25172-3 0  9998,2 51750  53.2165 244.6671 0002993  34.0229 326.0955 15.08838820 45399,6917.884,95.438,541.82,537.678,0.0
51750.0,STARLINK-3505,PAYLOAD,2022-12-07 18:02:03,15.08837225,0.0003135,53.216,241.9926,30.4616,329.6558,-4.2193e-05,-9.6e-06,0.0,0 STARLINK-3505,1 51750U 22016AN  22341.75143059 -.00000960  00000-0 -42193-4 0  9995,2 51750  53.2160 241.9926 0003135  30.4616 329.6558 15.08837225 44368,6917.889,95.438,541.923,537.585,0.0
51750.0,STARLINK-3505,PAYLOAD,2022-12-08 03:34:21,15.0885144,0.0003073,53.2165,240.2078,38.5355,321.5856,7.366399999999999e-05,8.84e-06,0.0,0 STARLINK-3505,1 51750U 22016AN  22342.14885686  .00000884  00000-0  73664-4 0  9998,2 51750  53.2165 240.2078 0003073  38.5355 321.5856 15.08851440 45541,6917.845,95.437,541.836,537.585,0.0
51750.0,STARLINK-3505,PAYLOAD,2022-12-08 09:55:53,15.08849447,0.0003009,53.2168,239.0175,36.404,323.7157,0.00014207,1.974e-05,0.0,0 STARLINK-3505,1 51750U 22016AN  22342.41381504  .00001974  00000-0  14207-3 0  9996,2 51750  53.2168 239.0175 0003009  36.4040 323.7157 15.08849447 44467,6917.852,95.437,541.798,537.635,0.0
51750.0,STARLINK-3505,PAYLOAD,2022-12-09 00:14:21,15.08833916,0.0002977,53.218,236.3415,38.8151,321.3055,0.0003474,5.244e-05,0.0,0 STARLINK-3505,1 51750U 22016AN  22343.00997614  .00005244  00000-0  34740-3 0  9995,2 51750  53.2180 236.3415 0002977  38.8151 321.3055 15.08833916 45679,6917.899,95.438,541.823,537.705,0.0
51750.0,STARLINK-3505,PAYLOAD,2022-12-09 20:54:23,15.08839789,0.0002911,53.218,232.4803,42.2299,317.8917,-3.1257e-05,-7.86e-06,0.0,0 STARLINK-3505,1 51750U 22016AN  22343.87110655 -.00000786  00000-0 -31257-4 0  9991,2 51750  53.2180 232.4803 0002911  42.2299 317.8917 15.08839789 45803,6917.880999999999,95.438,541.76,537.732,0.0
51750.0,STARLINK-3505,PAYLOAD,2022-12-10 03:15:56,15.08840997,0.0002949,53.2168,231.2863,35.1892,324.9295,-2.188e-05,-6.37e-06,0.0,0 STARLINK-3505,1 51750U 22016AN  22344.13606510 -.00000637  00000-0 -21880-4 0  9997,2 51750  53.2168 231.2863 0002949  35.1892 324.9295 15.08840997 44724,6917.877,95.437,541.7819999999998,537.702,0.0
51750.0,STARLINK-3505,PAYLOAD,2022-12-11 01:31:19,15.08842091,0.0003317,53.2174,227.1219,31.7405,328.3787,-4.3132e-05,-9.75e-06,0.0,0 STARLINK-3505,1 51750U 22016AN  22345.06342511 -.00000975  00000-0 -43132-4 0  9997,2 51750  53.2174 227.1219 0003317  31.7405 328.3787 15.08842091 45982,6917.874,95.437,542.034,537.444,0.0
